NORAD_CAT_ID,OBJECT_NAME,OBJECT_TYPE,EPOCH,MEAN_MOTION,ECCENTRICITY,INCLINATION,RA_OF_ASC_NODE,ARG_OF_PERICENTER,MEAN_ANOMALY,BSTAR,MEAN_MOTION_DOT,MEAN_MOTION_DDOT,TLE_LINE0,TLE_LINE1,TLE_LINE2,SEMIMAJOR_AXIS,PERIOD,APOGEE,PERIGEE,DECAYED
51151.0,STARLINK-3361,PAYLOAD,2022-02-02 22:00:00,15.78436348,0.0001240999999999,53.2172,200.8794,80.1045,88.3243,-0.0050396,-0.00810936,0.0,0 STARLINK-3361,1 51151U 22005AZ  22033.91667824 -.00810936  00000-0 -50396-2 0  9999,2 51151  53.2172 200.8794 0001241  80.1045  88.3243 15.78436348  2808,6713.007,91.23,335.705,334.039,0.0
51151.0,STARLINK-3361,PAYLOAD,2022-02-03 06:00:00,15.77780405,0.0001057,53.2182,199.2175,56.0906,207.2417,-0.004539,-0.00716932,0.0,0 STARLINK-3361,1 51151U 22005AZ  22034.25001157 -.00716932  00000-0 -45390-2 0  9997,2 51151  53.2182 199.2175 0001057  56.0906 207.2417 15.77780405  3717,6714.868,91.267,337.4430000000001,336.023,0.0
51151.0,STARLINK-3361,PAYLOAD,2022-02-03 14:00:01,15.77271533,0.0001143,53.2177,197.5561,56.8023,300.6568,-0.0053938999999999,-0.0082233999999999,0.0,0 STARLINK-3361,1 51151U 22005AZ  22034.58334491 -.00822340  00000-0 -53939-2 0  9992,2 51151  53.2177 197.5561 0001143  56.8023 300.6568 15.77271533  3762,6716.312,91.297,338.945,337.409,0.0
51151.0,STARLINK-3361,PAYLOAD,2022-02-03 22:00:01,15.76682536,0.0001075,53.2174,195.8986,65.2803,25.7045,-0.0054947,-0.00816467,0.0,0 STARLINK-3361,1 51151U 22005AZ  22034.91668981 -.00816467  00000-0 -54947-2 0  9996,2 51151  53.2174 195.8986 0001075  65.2803  25.7045 15.76682536  2970,6717.985,91.331,340.57199999999995,339.1269999999999,0.0
51151.0,STARLINK-3361,PAYLOAD,2022-02-04 14:00:01,15.75512989,0.0001355,53.2176,192.5842,51.2079,224.5844,-0.0058146,-0.00820033,0.0,0 STARLINK-3361,1 51151U 22005AZ  22035.58335648 -.00820033  00000-0 -58146-2 0  9990,2 51151  53.2176 192.5842 0001355  51.2079 224.5844 15.75512989  3923,6721.309,91.399,344.085,342.2630000000001,0.0
51151.0,STARLINK-3361,PAYLOAD,2022-02-04 22:00:00,15.74929539,0.0001022,53.2172,190.931,64.2351,302.8373,-0.0059894,-0.00822885,0.0,0 STARLINK-3361,1 51151U 22005AZ  22035.91667824 -.00822885  00000-0 -59894-2 0  9999,2 51151  53.2172 190.9310 0001022  64.2351 302.8373 15.74929539  3131,6722.969,91.433,345.521,344.147,0.0
51151.0,STARLINK-3361,PAYLOAD,2022-02-05 14:00:01,15.73664062,0.0001589,53.2177,187.6251,40.2837,147.3922,-0.0044324,-0.00592527,0.0,0 STARLINK-3361,1 51151U 22005AZ  22036.58334491 -.00592527  00000-0 -44324-2 0  9993,2 51151  53.2177 187.6251 0001589  40.2837 147.3922 15.73664062  4076,6726.571999999999,91.506,349.506,347.369,0.0
51151.0,STARLINK-3361,PAYLOAD,2022-02-05 16:00:00,15.73425248,0.0001339,53.218,187.2141,62.7826,237.2887,-0.0022936,-0.00313819,0.0,0 STARLINK-3361,1 51151U 22005AZ  22036.66667824 -.00313819  00000-0 -22936-2 0  9991,2 51151  53.2180 187.2141 0001339  62.7826 237.2887 15.73425248  4096,6727.253000000002,91.52,350.019,348.217,0.0
51151.0,STARLINK-3361,PAYLOAD,2022-02-06 21:13:39,15.72383014,0.0003965,53.2195,181.1986,69.7153,290.4293,-0.0027489,-0.00357999,0.0,0 STARLINK-3361,1 51151U 22005AZ  22037.88448276 -.00357999  00000-0 -27489-2 0  9999,2 51151  53.2195 181.1986 0003965  69.7153 290.4293 15.72383014  3172,6730.225,91.581,354.759,349.422,0.0
51151.0,STARLINK-3361,PAYLOAD,2022-02-07 00:16:37,15.72444893,0.0005667999999999,53.2205,180.5696,64.0728,296.0875,-0.0020733,-0.00273739,0.0,0 STARLINK-3361,1 51151U 22005AZ  22038.01154780 -.00273739  00000-0 -20733-2 0  9993,2 51151  53.2205 180.5696 0005668  64.0728 296.0875 15.72444893  4300,6730.049,91.577,355.728,348.099,0.0
51151.0,STARLINK-3361,PAYLOAD,2022-02-07 14:00:24,15.72232036,0.0008908,53.2193,177.7435,332.6279,27.427,0.00010088,0.00013014,0.0,0 STARLINK-3361,1 51151U 22005AZ  22038.58361914  .00013014  00000-0  10088-3 0  9993,2 51151  53.2193 177.7435 0008908 332.6279  27.4270 15.72232036  4398,6730.656,91.59,358.517,346.526,0.0
51151.0,STARLINK-3361,PAYLOAD,2022-02-08 23:32:10,15.73237436,0.0001827,53.2188,170.8249,26.9225,333.189,0.00012093,0.00016412,0.0,0 STARLINK-3361,1 51151U 22005AZ  22039.98067428  .00016412  00000-0  12093-3 0  9994,2 51151  53.2188 170.8249 0001827  26.9225 333.1890 15.73237436  4616,6727.788000000001,91.531,350.8830000000001,348.4240000000001,0.0
51151.0,STARLINK-3361,PAYLOAD,2022-02-09 08:41:02,15.73233181,0.0001567,53.219,168.9383,36.3323,323.7804,0.00010984,0.00014844,0.0,0 STARLINK-3361,1 51151U 22005AZ  22040.36183583  .00014844  00000-0  10984-3 0  9993,2 51151  53.2190 168.9383 0001567  36.3323 323.7804 15.73233181  4670,6727.801,91.531,350.72,348.611,0.0
51151.0,STARLINK-3361,PAYLOAD,2022-02-09 14:46:57,15.73230062,0.0001807,53.219,167.6798,30.0335,330.0789,5.5995e-05,7.255e-05,0.0,0 STARLINK-3361,1 51151U 22005AZ  22040.61594567  .00007255  00000-0  55995-4 0  9999,2 51151  53.2190 167.6798 0001807  30.0335 330.0789 15.73230062  3607,6727.809,91.531,350.89,348.459,0.0
51151.0,STARLINK-3361,PAYLOAD,2022-02-09 20:00:01,15.73174039,0.0002,53.2188,166.6071,25.0581,127.0145,0.00050825,0.00071239,0.0,0 STARLINK-3361,1 51151U 22005AZ  22040.83334491  .00071239  00000-0  50825-3 0  9990,2 51151  53.2188 166.6071 0002000  25.0581 127.0145 15.73174039  4747,6727.969,91.535,351.18,348.48900000000015,0.0
51151.0,STARLINK-3361,PAYLOAD,2022-02-10 06:00:00,15.72849891,0.0001851,53.2175,164.5331,38.189,315.1252,0.0028911,0.00419759,0.0,0 STARLINK-3361,1 51151U 22005AZ  22041.25001157  .00419759  00000-0  28911-2 0  9990,2 51151  53.2175 164.5331 0001851  38.1890 315.1252 15.72849891  4811,6728.894,91.554,352.004,349.51300000000015,0.0
51151.0,STARLINK-3361,PAYLOAD,2022-02-10 13:39:09,15.73222664,0.0001889,53.2194,162.9659,22.2306,337.8796,2.5446e-05,2.955e-05,0.0,0 STARLINK-3361,1 51151U 22005AZ  22041.56886086  .00002955  00000-0  25446-4 0  9994,2 51151  53.2194 162.9659 0001889  22.2306 337.8796 15.73222664  3754,6727.831,91.532,350.966,348.425,0.0
51151.0,STARLINK-3361,PAYLOAD,2022-02-10 14:00:01,15.73228407,0.0001983,53.2187,162.8956,21.9517,60.2767,6.357800000000001e-05,8.322e-05,0.0,0 STARLINK-3361,1 51151U 22005AZ  22041.58335648  .00008322  00000-0  63578-4 0  9991,2 51151  53.2187 162.8956 0001983  21.9517  60.2767 15.73228407  4869,6727.814,91.532,351.01300000000015,348.345,0.0
51151.0,STARLINK-3361,PAYLOAD,2022-02-10 22:00:00,15.73271632,0.0002098,53.2185,161.2461,21.7224,149.4133,-0.00049328,-0.00069499,0.0,0 STARLINK-3361,1 51151U 22005AZ  22041.91667824 -.00069499  00000-0 -49328-3 0  9992,2 51151  53.2185 161.2461 0002098  21.7224 149.4133 15.73271632  3710,6727.691,91.529,350.967,348.144,0.0
51151.0,STARLINK-3361,PAYLOAD,2022-02-11 14:00:01,15.73283765,0.0002159,53.2191,157.947,17.5455,331.589,-0.0004492,-0.00063423,0.0,0 STARLINK-3361,1 51151U 22005AZ  22042.58334491 -.00063423  00000-0 -44920-3 0  9991,2 51151  53.2191 157.9470 0002159  17.5455 331.5890 15.73283765  5026,6727.656,91.528,350.974,348.069,0.0
51151.0,STARLINK-3361,PAYLOAD,2022-02-11 14:02:48,15.7324101,0.0001848,53.2201,157.935,34.0052,326.1086,4.4906000000000014e-05,5.697e-05,0.0,0 STARLINK-3361,1 51151U 22005AZ  22042.58528609  .00005697  00000-0  44906-4 0  9999,2 51151  53.2201 157.9350 0001848  34.0052 326.1086 15.73241010  3916,6727.778,91.531,350.88699999999994,348.4,0.0
51151.0,STARLINK-3361,PAYLOAD,2022-02-11 22:00:01,15.73262732,0.0002246,53.2189,156.2972,15.8541,62.3023,-0.00050167,-0.00070636,0.0,0 STARLINK-3361,1 51151U 22005AZ  22042.91668981 -.00070636  00000-0 -50167-3 0  9996,2 51151  53.2189 156.2972 0002246  15.8541  62.3023 15.73262732  3730,6727.715999999999,91.53,351.092,348.07,0.0
51151.0,STARLINK-3361,PAYLOAD,2022-02-12 03:46:07,15.7324131,0.0002137,53.2192,155.108,22.3926,337.7187,3.537e-05,4.354e-05,0.0,0 STARLINK-3361,1 51151U 22005AZ  22043.15702588  .00004354  00000-0  35370-4 0  9997,2 51151  53.2192 155.1080 0002137  22.3926 337.7187 15.73241310  5114,6727.776999999999,91.531,351.08,348.205,0.0
51151.0,STARLINK-3361,PAYLOAD,2022-02-12 14:00:01,15.7310816,0.0002389,53.2179,152.9993,20.1683,235.8076,-1.3891e-05,-2.562e-05,0.0,0 STARLINK-3361,1 51151U 22005AZ  22043.58334491 -.00002562  00000-0 -13891-4 0  9993,2 51151  53.2179 152.9993 0002389  20.1683 235.8076 15.73108160  5189,6728.156999999997,91.539,351.629,348.415,0.0
51151.0,STARLINK-3361,PAYLOAD,2022-02-12 22:00:00,15.73120253,0.0002347,53.2166,151.3497,16.9445,327.8235,0.00015737,0.00021448,0.0,0 STARLINK-3361,1 51151U 22005AZ  22043.91667824  .00021448  00000-0  15737-3 0  9991,2 51151  53.2166 151.3497 0002347  16.9445 327.8235 15.73120253  3746,6728.123000000001,91.538,351.56699999999995,348.408,0.0
51151.0,STARLINK-3361,PAYLOAD,2022-02-13 04:00:01,15.73206645,0.0002223,53.2172,150.0965,21.2592,300.0226,-9.9529e-06,-2.019e-05,0.0,0 STARLINK-3361,1 51151U 22005AZ  22044.16668981 -.00002019  00000-0 -99529-5 0  9992,2 51151  53.2172 150.0965 0002223  21.2592 300.0226 15.73206645  5277,6727.876,91.533,351.237,348.246,0.0
51151.0,STARLINK-3361,PAYLOAD,2022-02-13 12:00:00,15.73187542,0.0002425,53.2174,148.4636,20.174,30.0888,0.00011002,0.0001484,0.0,0 STARLINK-3361,1 51151U 22005AZ  22044.50001157  .00014840  00000-0  11002-3 0  9997,2 51151  53.2174 148.4636 0002425  20.1740  30.0888 15.73187542  5326,6727.931,91.534,351.427,348.164,0.0
51151.0,STARLINK-3361,PAYLOAD,2022-02-13 14:00:01,15.73180641,0.000253,53.2174,148.0516,19.865,142.6281,0.00030506,0.00042377,0.0,0 STARLINK-3361,1 51151U 22005AZ  22044.58334491  .00042377  00000-0  30506-3 0  9991,2 51151  53.2174 148.0516 0002530  19.8650 142.6281 15.73180641  3723,6727.95,91.534,351.51800000000014,348.11300000000006,0.0
51151.0,STARLINK-3361,PAYLOAD,2022-02-13 22:00:00,15.73238726,0.000251,53.2172,146.4016,18.2007,233.2121,7.5369e-05,9.987e-05,0.0,0 STARLINK-3361,1 51151U 22005AZ  22044.91667824  .00009987  00000-0  75369-4 0  9994,2 51151  53.2172 146.4016 0002510  18.2007 233.2121 15.73238726  5398,6727.785,91.531,351.338,347.961,0.0
